ONEWEB-0199             
1 48234U 21031AA  25353.16676421  .00000109  00000+0  26011-3 0  9991
2 48234  87.8998 325.5567 0001945  84.6131 275.5220 13.14501254224611
ONEWEB-0203             
1 48235U 21031AB  25353.15725503  .00000168  00000+0  41898-3 0  9992
2 48235  87.8996 325.5591 0001861  76.0470 284.0867 13.14503952224625
ONEWEB-0197             
1 48236U 21031AC  25352.90337811  .00000148  00000+0  36477-3 0  9991
2 48236  87.8999 325.6082 0001810  94.4459 265.6877 13.14505510224505
ONEWEB-0194             
1 48237U 21031AD  25353.18737561  .00000869  00000+0  23102-2 0  9999
2 48237  87.8998 325.5687 0002003  80.9268 279.2089 13.14512599224712
ONEWEB-0193             
1 48238U 21031AE  25353.20322917 -.00000241  00000+0 -68368-3 0  9998
2 48238  87.8992 325.5601 0002256  81.5837 278.5548 13.14502726224669
ONEWEB-0191             
1 48239U 21031AF  25352.90988685  .00000132  00000+0  32124-3 0  9993
2 48239  87.9003 325.6088 0001852  85.0032 275.1309 13.14502639224482
ONEWEB-0195             
1 48240U 21031AG  25352.96300034 -.00000203  00000+0 -58308-3 0  9990
2 48240  87.9004 325.5953 0001507  73.8859 286.2437 13.14502009224479
ONEWEB-0201             
1 48241U 21031AH  25352.95125744 -.00000086  00000+0 -26534-3 0  9998
2 48241  87.8987 325.6355 0001570  90.6347 269.4962 13.14503085224702
